[
    {
        "Altitude(m)": 624790.8340907416,
        "Argument of Periapsis(deg)": 0.0,
        "Eccentricity": 0.0,
        "Inclination(deg)": 60.0,
        "Latitude(deg)": -59.147233913138436,
        "Longitude(deg)": -53.96529445498049,
        "Mean Anomaly(deg)": -81.81820000000003,
        "RAAN(deg)": 120.0,
        "Satellite Name": "Test1 545",
        "Satellite Number": 545,
        "Semi-Major Axis(m)": 6980739.136638005,
        "Time(s)": 0
    },
    {
        "Altitude(m)": 624737.4888780039,
        "Argument of Periapsis(deg)": 0.00010418945913296404,
        "Eccentricity": 0.0,
        "Inclination(deg)": 60.0,
        "Latitude(deg)": -58.99468787183624,
        "Longitude(deg)": -52.84578920377199,
        "Mean Anomaly(deg)": -81.19809385453819,
        "RAAN(deg)": 119.99957995086024,
        "Satellite Name": "Test1 545",
        "Satellite Number": 545,
        "Semi-Major Axis(m)": 6980739.136638005,
        "Time(s)": 10
    }
]